{
    "links": {
        "self": "http://www.neowsapp.com/rest/v1/neo/3685820?api_key=iIulBulltgU6a56xZRHN4H3l9WmuAYTsLGpBGhQ2"
    },
    "id": "3685820",
    "neo_reference_id": "3685820",
    "name": "(2014 QE433)",
    "designation": "2014 QE433",
    "nasa_jpl_url": "http://ssd.jpl.nasa.gov/sbdb.cgi?sstr=3685820",
    "absolute_magnitude_h": 22.9,
    "estimated_diameter": {
        "kilometers": {
            "estimated_diameter_min": 0.0699125232,
            "estimated_diameter_max": 0.1563291544
        },
        "meters": {
            "estimated_diameter_min": 69.9125232246,
            "estimated_diameter_max": 156.3291544087
        },
        "miles": {
            "estimated_diameter_min": 0.0434416145,
            "estimated_diameter_max": 0.097138403
        },
        "feet": {
            "estimated_diameter_min": 229.3718026961,
            "estimated_diameter_max": 512.8909429502
        }
    },
    "is_potentially_hazardous_asteroid": false,
    "close_approach_data": [
        {
            "close_approach_date": "2014-08-20",
            "close_approach_date_full": "2014-Aug-20 05:16",
            "epoch_date_close_approach": 1408511760000,
            "relative_velocity": {
                "kilometers_per_second": "3.1470342623",
                "kilometers_per_hour": "11329.3233442905",
                "miles_per_hour": "7039.6009413454"
            },
            "miss_distance": {
                "astronomical": "0.2459014397",
                "lunar": "95.6556600433",
                "kilometers": "36786331.609053439",
                "miles": "22857966.5238738982"
            },
            "orbiting_body": "Earth"
        }
    ],
    "orbital_data": {
        "orbit_id": "4",
        "orbit_determination_date": "2018-02-10 07:05:54",
        "first_observation_date": "2014-08-30",
        "last_observation_date": "2014-09-04",
        "data_arc_in_days": 5,
        "observations_used": 23,
        "orbit_uncertainty": "9",
        "minimum_orbit_intersection": ".241071",
        "jupiter_tisserand_invariant": "3.320",
        "epoch_osculation": "2456903.5",
        "eccentricity": ".4898116745528144",
        "semi_major_axis": "2.448453512607232",
        "inclination": "2.216824336879141",
        "ascending_node_longitude": "240.6368467210845",
        "orbital_period": "1399.381798953246",
        "perihelion_distance": "1.249172397532363",
        "perihelion_argument": "86.89091872408744",
        "aphelion_distance": "3.6477346276821",
        "perihelion_time": "2456887.648943505075",
        "mean_anomaly": "4.077786592937996",
        "mean_motion": ".2572564544352973",
        "equinox": "J2000",
        "orbit_class": {
            "orbit_class_type": "AMO",
            "orbit_class_description": "Near-Earth asteroid orbits similar to that of 1221 Amor",
            "orbit_class_range": "1.017 AU < q (perihelion) < 1.3 AU"
        }
    },
    "is_sentry_object": false
}